{"type": "FeatureCollection", "features": [ {"type": "Feature", "properties": {"norad_id": 67050, "name": "STARLINK-36078", "group": "last-30-days", "lat": -38.04403744287747, "lon": 44.299949268480525, "alt_km": 366.84511483594815, "timestamp": "2025-12-25T22:42:15.711808+00:00", "meta": {"OBJECT_NAME": "STARLINK-36078", "OBJECT_ID": "2025-294W", "EPOCH": "2025-12-25T18:00:02.000160", "MEAN_MOTION": 15.68745501, "ECCENTRICITY": 0.0001516, "INCLINATION": 43, "RA_OF_ASC_NODE": 102.5927, "ARG_OF_PERICENTER": 277.9904, "MEAN_ANOMALY": 349.4416, "EPHEMERIS_TYPE": 0, "CLASSIFICATION_TYPE": "U", "NORAD_CAT_ID": 67050, "ELEMENT_SET_NO": 999, "REV_AT_EPOCH": 231, "BSTAR": -0.01811, "MEAN_MOTION_DOT": -0.01890555, "MEAN_MOTION_DDOT": 0}, "tle": {"line1": "1 67050U 25294W   25359.75002315 -.01890555  00000+0 -18110-1 0  9993", "line2": "2 67050  43.0000 102.5927 0001516 277.9904 349.4416 15.68745501  2313"}}, "geometry": {"type": "Point", "coordinates": [44.299949268480525, -38.04403744287747]}}, {"type": "Feature", "properties": {"norad_id": 67051, "name": "STARLINK-35706", "group": "last-30-days", "lat": -37.20733522253414, "lon": 46.84386933862089, "alt_km": 366.8758549640406, "timestamp": "2025-12-25T22:42:15.711818+00:00", "meta": {"OBJECT_NAME": "STARLINK-35706", "OBJECT_ID": "2025-294X", "EPOCH": "2025-12-25T18:00:02.000160", "MEAN_MOTION": 15.68727473, "ECCENTRICITY": 0.0001525, "INCLINATION": 43, "RA_OF_ASC_NODE": 102.587, "ARG_OF_PERICENTER": 276.0994, "MEAN_ANOMALY": 353.5328, "EPHEMERIS_TYPE": 0, "CLASSIFICATION_TYPE": "U", "NORAD_CAT_ID": 67051, "ELEMENT_SET_NO": 999, "REV_AT_EPOCH": 239, "BSTAR": -0.018125, "MEAN_MOTION_DOT": -0.01890689, "MEAN_MOTION_DDOT": 0}, "tle": {"line1": "1 67051U 25294X   25359.75002315 -.01890689  00000+0 -18125-1 0  9998", "line2": "2 67051  43.0000 102.5870 0001525 276.0994 353.5328 15.68727473  2394"}}, "geometry": {"type": "Point", "coordinates": [46.84386933862089, -37.20733522253414]}}, {"type": "Feature", "properties": {"norad_id": 67052, "name": "STARLINK-35720", "group": "last-30-days", "lat": -36.411416975937364, "lon": 49.07689613633752, "alt_km": 366.81700576593175, "timestamp": "2025-12-25T22:42:15.711827+00:00", "meta": {"OBJECT_NAME": "STARLINK-35720", "OBJECT_ID": "2025-294Y", "EPOCH": "2025-12-25T18:00:02.000160", "MEAN_MOTION": 15.68726049, "ECCENTRICITY": 0.0001563, "INCLINATION": 43.0001, "RA_OF_ASC_NODE": 102.5822, "ARG_OF_PERICENTER": 278.0316, "MEAN_ANOMALY": 353.5649, "EPHEMERIS_TYPE": 0, "CLASSIFICATION_TYPE": "U", "NORAD_CAT_ID": 67052, "ELEMENT_SET_NO": 999, "REV_AT_EPOCH": 238, "BSTAR": -0.018141, "MEAN_MOTION_DOT": -0.01892127, "MEAN_MOTION_DDOT": 0}, "tle": {"line1": "1 67052U 25294Y   25359.75002315 -.01892127  00000+0 -18141-1 0  9996", "line2": "2 67052  43.0001 102.5822 0001563 278.0316 353.5649 15.68726049  2388"}}, "geometry": {"type": "Point", "coordinates": [49.07689613633752, -36.411416975937364]}}, {"type": "Feature", "properties": {"norad_id": 67053, "name": "STARLINK-35739", "group": "last-30-days", "lat": -35.51461033698347, "lon": 51.4155130374351, "alt_km": 366.861324369921, "timestamp": "2025-12-25T22:42:15.711837+00:00", "meta": {"OBJECT_NAME": "STARLINK-35739", "OBJECT_ID": "2025-294Z", "EPOCH": "2025-12-25T18:00:02.000160", "MEAN_MOTION": 15.68710984, "ECCENTRICITY": 0.0001514, "INCLINATION": 43.0005, "RA_OF_ASC_NODE": 102.5773, "ARG_OF_PERICENTER": 277.4758, "MEAN_ANOMALY": 356.2312, "EPHEMERIS_TYPE": 0, "CLASSIFICATION_TYPE": "U", "NORAD_CAT_ID": 67053, "ELEMENT_SET_NO": 999, "REV_AT_EPOCH": 204, "BSTAR": -0.018125, "MEAN_MOTION_DOT": -0.01889533, "MEAN_MOTION_DDOT": 0}, "tle": {"line1": "1 67053U 25294Z   25359.75002315 -.01889533  00000+0 -18125-1 0  9996", "line2": "2 67053  43.0005 102.5773 0001514 277.4758 356.2312 15.68710984  2048"}}, "geometry": {"type": "Point", "coordinates": [51.4155130374351, -35.51461033698347]}}, {"type": "Feature", "properties": {"norad_id": 67054, "name": "STARLINK-35754", "group": "last-30-days", "lat": -34.52215613503183, "lon": 53.81879855733324, "alt_km": 366.8537476818274, "timestamp": "2025-12-25T22:42:15.711847+00:00", "meta": {"OBJECT_NAME": "STARLINK-35754", "OBJECT_ID": "2025-294AA", "EPOCH": "2025-12-25T18:00:02.000160", "MEAN_MOTION": 15.68690905, "ECCENTRICITY": 0.0001541, "INCLINATION": 43, "RA_OF_ASC_NODE": 102.5716, "ARG_OF_PERICENTER": 278.8848, "MEAN_ANOMALY": 357.0472, "EPHEMERIS_TYPE": 0, "CLASSIFICATION_TYPE": "U", "NORAD_CAT_ID": 67054, "ELEMENT_SET_NO": 999, "REV_AT_EPOCH": 220, "BSTAR": -0.018135, "MEAN_MOTION_DOT": -0.01889109, "MEAN_MOTION_DDOT": 0}, "tle": {"line1": "1 67054U 25294AA  25359.75002315 -.01889109  00000+0 -18135-1 0  9997", "line2": "2 67054  43.0000 102.5716 0001541 278.8848 357.0472 15.68690905  2200"}}, "geometry": {"type": "Point", "coordinates": [53.81879855733324, -34.52215613503183]}}, {"type": "Feature", "properties": {"norad_id": 67055, "name": "STARLINK-35790", "group": "last-30-days", "lat": -33.50612765996858, "lon": 56.11431693726091, "alt_km": 366.86037023366407, "timestamp": "2025-12-25T22:42:15.711860+00:00", "meta": {"OBJECT_NAME": "STARLINK-35790", "OBJECT_ID": "2025-294AB", "EPOCH": "2025-12-25T18:00:02.000160", "MEAN_MOTION": 15.68673706, "ECCENTRICITY": 0.0001606, "INCLINATION": 42.9997, "RA_OF_ASC_NODE": 102.5652, "ARG_OF_PERICENTER": 275.1145, "MEAN_ANOMALY": 2.9915, "EPHEMERIS_TYPE": 0, "CLASSIFICATION_TYPE": "U", "NORAD_CAT_ID": 67055, "ELEMENT_SET_NO": 999, "REV_AT_EPOCH": 239, "BSTAR": -0.018132, "MEAN_MOTION_DOT": -0.01887686, "MEAN_MOTION_DDOT": 0}, "tle": {"line1": "1 67055U 25294AB  25359.75002315 -.01887686  00000+0 -18132-1 0  9993", "line2": "2 67055  42.9997 102.5652 0001606 275.1145   2.9915 15.68673706  2393"}}, "geometry": {"type": "Point", "coordinates": [56.11431693726091, -33.50612765996858]}}, {"type": "Feature", "properties": {"norad_id": 67056, "name": "STARLINK-36143", "group": "last-30-days", "lat": -30.480043254110136, "lon": 62.20193361081477, "alt_km": 366.77339528118137, "timestamp": "2025-12-25T22:42:15.711872+00:00", "meta": {"OBJECT_NAME": "STARLINK-36143", "OBJECT_ID": "2025-294AC", "EPOCH": "2025-12-25T18:00:02.000160", "MEAN_MOTION": 15.68656762, "ECCENTRICITY": 0.0001591, "INCLINATION": 42.9999, "RA_OF_ASC_NODE": 102.5499, "ARG_OF_PERICENTER": 277.5911, "MEAN_ANOMALY": 6.5271, "EPHEMERIS_TYPE": 0, "CLASSIFICATION_TYPE": "U", "NORAD_CAT_ID": 67056, "ELEMENT_SET_NO": 999, "REV_AT_EPOCH": 239, "BSTAR": -0.018146, "MEAN_MOTION_DOT": -0.01887773, "MEAN_MOTION_DDOT": 0}, "tle": {"line1": "1 67056U 25294AC  25359.75002315 -.01887773  00000+0 -18146-1 0  9996", "line2": "2 67056  42.9999 102.5499 0001591 277.5911   6.5271 15.68656762  2393"}}, "geometry": {"type": "Point", "coordinates": [62.20193361081477, -30.480043254110136]}}, {"type": "Feature", "properties": {"norad_id": 67057, "name": "STARLINK-36141", "group": "last-30-days", "lat": -31.543972389333916, "lon": 60.17216902455536, "alt_km": 366.7818625692962, "timestamp": "2025-12-25T22:42:15.711884+00:00", "meta": {"OBJECT_NAME": "STARLINK-36141", "OBJECT_ID": "2025-294AD", "EPOCH": "2025-12-25T18:00:02.000160", "MEAN_MOTION": 15.68666017, "ECCENTRICITY": 0.0001588, "INCLINATION": 42.9996, "RA_OF_ASC_NODE": 102.5556, "ARG_OF_PERICENTER": 278.6302, "MEAN_ANOMALY": 3.4369, "EPHEMERIS_TYPE": 0, "CLASSIFICATION_TYPE": "U", "NORAD_CAT_ID": 67057, "ELEMENT_SET_NO": 999, "REV_AT_EPOCH": 231, "BSTAR": -0.018148, "MEAN_MOTION_DOT": -0.01888626, "MEAN_MOTION_DDOT": 0}, "tle": {"line1": "1 67057U 25294AD  25359.75002315 -.01888626  00000+0 -18148-1 0  9997", "line2": "2 67057  42.9996 102.5556 0001588 278.6302   3.4369 15.68666017  2317"}}, "geometry": {"type": "Point", "coordinates": [60.17216902455536, -31.543972389333916]}}, {"type": "Feature", "properties": {"norad_id": 67058, "name": "STARLINK-35767", "group": "last-30-days", "lat": -32.52851957902767, "lon": 58.19303342576339, "alt_km": 366.9385568643311, "timestamp": "2025-12-25T22:42:15.711894+00:00", "meta": {"OBJECT_NAME": "STARLINK-35767", "OBJECT_ID": "2025-294AE", "EPOCH": "2025-12-25T18:00:02.000160", "MEAN_MOTION": 15.68675552, "ECCENTRICITY": 0.0001424, "INCLINATION": 43, "RA_OF_ASC_NODE": 102.5606, "ARG_OF_PERICENTER": 275.4918, "MEAN_ANOMALY": 4.6199, "EPHEMERIS_TYPE": 0, "CLASSIFICATION_TYPE": "U", "NORAD_CAT_ID": 67058, "ELEMENT_SET_NO": 999, "REV_AT_EPOCH": 220, "BSTAR": -0.018266, "MEAN_MOTION_DOT": -0.01900028, "MEAN_MOTION_DDOT": 0}, "tle": {"line1": "1 67058U 25294AE  25359.75002315 -.01900028  00000+0 -18266-1 0  9990", "line2": "2 67058  43.0000 102.5606 0001424 275.4918   4.6199 15.68675552  2205"}}, "geometry": {"type": "Point", "coordinates": [58.19303342576339, -32.52851957902767]}}, {"type": "Feature", "properties": {"norad_id": 67059, "name": "HULIANWANG DIGUI-119", "group": "last-30-days", "lat": -38.1744218643583, "lon": -84.76531193224761, "alt_km": 803.9572752872018, "timestamp": "2025-12-25T22:42:15.711904+00:00", "meta": {"OBJECT_NAME": "HULIANWANG DIGUI-119", "OBJECT_ID": "2025-295A", "EPOCH": "2025-12-25T14:32:16.819008", "MEAN_MOTION": 14.24617043, "ECCENTRICITY": 0.0014019, "INCLINATION": 50.005, "RA_OF_ASC_NODE": 317.9696, "ARG_OF_PERICENTER": 291.7962, "MEAN_ANOMALY": 68.146, "EPHEMERIS_TYPE": 0, "CLASSIFICATION_TYPE": "U", "NORAD_CAT_ID": 67059, "ELEMENT_SET_NO": 999, "REV_AT_EPOCH": 195, "BSTAR": 8.0671e-05, "MEAN_MOTION_DOT": 2.9e-07, "MEAN_MOTION_DDOT": 0}, "tle": {"line1": "1 67059U 25295A   25359.60575022  .00000029  00000+0  80671-4 0  9997", "line2": "2 67059  50.0050 317.9696 0014019 291.7962  68.1460 14.24617043  1953"}}, "geometry": {"type": "Point", "coordinates": [-84.76531193224761, -38.1744218643583]}}]}